{"fetched_at":"2026-03-29T16:36:15Z","count":15609,"tles":[{"name":"STARLINK-4462","line1":"1 53781U 22111J   26087.74996094  .00000367  00000+0  41121-4 0  9990","line2":"2 53781  53.2169 188.5526 0001456  92.7145 267.4014 15.08846761196579","category":"Starlink"}]}